$$SOE
2461302.500000000, A.D. 2026-Sep-19 00:00:00.0000, -3.413445495688329E+08, 2.965034392787293E+08, 6.932142741181627E+06,
2461309.500000000, A.D. 2026-Sep-26 00:00:00.0000, -3.480275547641085E+08, 2.885237618072621E+08, 9.341527318306997E+06,
2461316.500000000, A.D. 2026-Oct-03 00:00:00.0000, -3.545279671061636E+08, 2.803928585530070E+08, 1.174600664954349E+07,
2461323.500000000, A.D. 2026-Oct-10 00:00:00.0000, -3.608423582352387E+08, 2.721149838581729E+08, 1.414431565661237E+07,
2461330.500000000, A.D. 2026-Oct-17 00:00:00.0000, -3.669674159400753E+08, 2.636944838374394E+08, 1.653519319099335E+07,
2461337.500000000, A.D. 2026-Oct-24 00:00:00.0000, -3.728999469423647E+08, 2.551357927425501E+08, 1.891738307958475E+07,
2461344.500000000, A.D. 2026-Oct-31 00:00:00.0000, -3.786368794442325E+08, 2.464434290613694E+08, 2.128963513995814E+07,
2461351.500000000, A.D. 2026-Nov-07 00:00:00.0000, -3.841752650952616E+08, 2.376219914320809E+08, 2.365070613851388E+07,
2461358.500000000, A.D. 2026-Nov-14 00:00:00.0000, -3.895122801742576E+08, 2.286761552665020E+08, 2.599936074405687E+07,
2461365.500000000, A.D. 2026-Nov-21 00:00:00.0000, -3.946452277950746E+08, 2.196106707712626E+08, 2.833437269717970E+07,
2461372.500000000, A.D. 2026-Nov-28 00:00:00.0000, -3.995715421333884E+08, 2.104303593673878E+08, 3.065452603982873E+07,
2461379.500000000, A.D. 2026-Dec-05 00:00:00.0000, -4.042887910512719E+08, 2.011401078606488E+08, 3.295861601825757E+07,
2461386.500000000, A.D. 2026-Dec-12 00:00:00.0000, -4.087946769508113E+08, 1.917448634796233E+08, 3.524544989723513E+07,
2461393.500000000, A.D. 2026-Dec-19 00:00:00.0000, -4.130870377442316E+08, 1.822496297947155E+08, 3.751384785791200E+07,
2461400.500000000, A.D. 2026-Dec-26 00:00:00.0000, -4.171638480837675E+08, 1.726594626592884E+08, 3.976264392044281E+07,
2461407.500000000, A.D. 2027-Jan-02 00:00:00.0000, -4.210232205750211E+08, 1.629794659912175E+08, 4.199068684948102E+07,
2461414.500000000, A.D. 2027-Jan-09 00:00:00.0000, -4.246634068561096E+08, 1.532147874235507E+08, 4.419684103238717E+07,
2461421.500000000, A.D. 2027-Jan-16 00:00:00.0000, -4.280827985067119E+08, 1.433706138408881E+08, 4.637998732638656E+07,
2461428.500000000, A.D. 2027-Jan-23 00:00:00.0000, -4.312799277411056E+08, 1.334521667686671E+08, 4.853902386582132E+07,
2461435.500000000, A.D. 2027-Jan-30 00:00:00.0000, -4.342534676990207E+08, 1.234646975735123E+08, 5.067286680696655E+07,
2461442.500000000, A.D. 2027-Feb-06 00:00:00.0000, -4.370022319131117E+08, 1.134134828205467E+08, 5.278045099803036E+07,
2461449.500000000, A.D. 2027-Feb-13 00:00:00.0000, -4.395251734185072E+08, 1.033038210139019E+08, 5.486073071531331E+07,
2461456.500000000, A.D. 2027-Feb-20 00:00:00.0000, -4.418213858748190E+08, 9.314102993711130E+07, 5.691268061708465E+07,
2461463.500000000, A.D. 2027-Feb-27 00:00:00.0000, -4.438901053109927E+08, 8.293044138932383E+07, 5.893529652417682E+07,
2461470.500000000, A.D. 2027-Mar-06 00:00:00.0000, -4.457307094770283E+08, 7.267739524969575E+07, 6.092759590688862E+07,
2461477.500000000, A.D. 2027-Mar-13 00:00:00.0000, -4.473427164029512E+08, 6.238723492610641E+07, 6.288861839115213E+07,
2461484.500000000, A.D. 2027-Mar-20 00:00:00.0000, -4.487257832973340E+08, 5.206530335880847E+07, 6.481742631822211E+07,
2461491.500000000, A.D. 2027-Mar-27 00:00:00.0000, -4.498797055876288E+08, 4.171693903597902E+07, 6.671310529378846E+07,
2461498.500000000, A.D. 2027-Apr-03 00:00:00.0000, -4.508044159034386E+08, 3.134747197926630E+07, 6.857476470346762E+07,
2461505.500000000, A.D. 2027-Apr-10 00:00:00.0000, -4.514999829457710E+08, 2.096221972767875E+07, 7.040153819059642E+07,
2461512.500000000, A.D. 2027-Apr-17 00:00:00.0000, -4.519666102251390E+08, 1.056648331056493E+07, 7.219258409304017E+07,
2461519.500000000, A.D. 2027-Apr-24 00:00:00.0000, -4.522046345946652E+08, 1.655431526175141E+05, 7.394708582678190E+07,
2461526.500000000, A.D. 2027-May-01 00:00:00.0000, -4.522145242839726E+08, -1.023534505616082E+07, 7.566425219129379E+07,
2461533.500000000, A.D. 2027-May-08 00:00:00.0000, -4.519968761315676E+08, -2.063095377220838E+07, 7.734331762983580E+07,
2461540.500000000, A.D. 2027-May-15 00:00:00.0000, -4.515524135175436E+08, -3.101608533423286E+07, 7.898354266000286E+07,
2461547.500000000, A.D. 2027-May-22 00:00:00.0000, -4.508819865666655E+08, -4.138557461129911E+07, 8.058421440654558E+07,
2461554.500000000, A.D. 2027-May-29 00:00:00.0000, -4.499865712730036E+08, -5.173429402732214E+07, 8.214464680949712E+07,
2461561.500000000, A.D. 2027-Jun-05 00:00:00.0000, -4.488672666660600E+08, -6.205715782553379E+07, 8.366418068281597E+07,
2461568.500000000, A.D. 2027-Jun-12 00:00:00.0000, -4.475252920295298E+08, -7.234912513824566E+07, 8.514218384295136E+07,
2461575.500000000, A.D. 2027-Jun-19 00:00:00.0000, -4.459619845092090E+08, -8.260520279542384E+07, 8.657805126171282E+07,
2461582.500000000, A.D. 2027-Jun-26 00:00:00.0000, -4.441787968373093E+08, -9.282044813157812E+07, 8.797120519739336E+07,
2461589.500000000, A.D. 2027-Jul-03 00:00:00.0000, -4.421772950473449E+08, -1.029899717805220E+08, 8.932109529371239E+07,
2461596.500000000, A.D. 2027-Jul-10 00:00:00.0000, -4.399591561485080E+08, -1.131089404474352E+08, 9.062719864485009E+07,
2461603.500000000, A.D. 2027-Jul-17 00:00:00.0000, -4.375261657287695E+08, -1.231725796957367E+08, 9.188901982100698E+07,
2461610.500000000, A.D. 2027-Jul-24 00:00:00.0000, -4.348802153358829E+08, -1.331761768106028E+08, 9.310609083599713E+07,
2461617.500000000, A.D. 2027-Jul-31 00:00:00.0000, -4.320232992303810E+08, -1.431150835029034E+08, 9.427797103939214E+07,
2461624.500000000, A.D. 2027-Aug-07 00:00:00.0000, -4.289575107164603E+08, -1.529847173013858E+08, 9.540424704665127E+07,
2461631.500000000, A.D. 2027-Aug-14 00:00:00.0000, -4.256850403569351E+08, -1.627805618867552E+08, 9.648453289843163E+07,
2461638.500000000, A.D. 2027-Aug-21 00:00:00.0000, -4.222081754603345E+08, -1.724981697330874E+08, 9.751847011870684E+07,
2461645.500000000, A.D. 2027-Aug-28 00:00:00.0000, -4.185292974161040E+08, -1.821331658538520E+08, 9.850572745694092E+07,
2461652.500000000, A.D. 2027-Sep-04 00:00:00.0000, -4.146508780643291E+08, -1.916812501496118E+08, 9.944600062811556E+07,
2461659.500000000, A.D. 2027-Sep-11 00:00:00.0000, -4.105754764993004E+08, -2.011381990186820E+08, 1.003390121249340E+08,
2461666.500000000, A.D. 2027-Sep-18 00:00:00.0000, -4.063057361780815E+08, -2.104998668816825E+08, 1.011845110372845E+08,
2461673.500000000, A.D. 2027-Sep-25 00:00:00.0000, -4.018443821097093E+08, -2.197621876981941E+08, 1.019822728521134E+08,
2461680.500000000, A.D. 2027-Oct-02 00:00:00.0000, -3.971942180536950E+08, -2.289211764483919E+08, 1.027320992293278E+08,
2461687.500000000, A.D. 2027-Oct-09 00:00:00.0000, -3.923581237083424E+08, -2.379729305853334E+08, 1.034338177514469E+08,
2461694.500000000, A.D. 2027-Oct-16 00:00:00.0000, -3.873390518288903E+08, -2.469136315151258E+08, 1.040872816372124E+08,
2461701.500000000, A.D. 2027-Oct-23 00:00:00.0000, -3.821400250196857E+08, -2.557395461136335E+08, 1.046923693959356E+08,
2461708.500000000, A.D. 2027-Oct-30 00:00:00.0000, -3.767641318304138E+08, -2.644470276720399E+08, 1.052489844395210E+08,
2461715.500000000, A.D. 2027-Nov-06 00:00:00.0000, -3.712145233242092E+08, -2.730325151450315E+08, 1.057570548523333E+08,
2461722.500000000, A.D. 2027-Nov-13 00:00:00.0000, -3.654944121067785E+08, -2.814925327798406E+08, 1.062165333323301E+08,
2461729.500000000, A.D. 2027-Nov-20 00:00:00.0000, -3.596070709187192E+08, -2.898236923147927E+08, 1.066273968599559E+08,
2461736.500000000, A.D. 2027-Nov-27 00:00:00.0000, -3.535558291775219E+08, -2.980226947850289E+08, 1.069896461900264E+08,
2461743.500000000, A.D. 2027-Dec-04 00:00:00.0000, -3.473440694954507E+08, -3.060863310227782E+08, 1.073033054275922E+08,
2461750.500000000, A.D. 2027-Dec-11 00:00:00.0000, -3.409752247255242E+08, -3.140114818179523E+08, 1.075684216598754E+08,
2461757.500000000, A.D. 2027-Dec-18 00:00:00.0000, -3.344527752623066E+08, -3.217951180809442E+08, 1.077850645919265E+08,
2461764.500000000, A.D. 2027-Dec-25 00:00:00.0000, -3.277802464476774E+08, -3.294343010130296E+08, 1.079533261728138E+08,
2461771.500000000, A.D. 2028-Jan-01 00:00:00.0000, -3.209612060425524E+08, -3.369261822728947E+08, 1.080733202108389E+08,
$$EOE